{
    "links": {
        "self": "http://www.neowsapp.com/rest/v1/neo/3617707?api_key=iIulBulltgU6a56xZRHN4H3l9WmuAYTsLGpBGhQ2"
    },
    "id": "3617707",
    "neo_reference_id": "3617707",
    "name": "(2012 VM76)",
    "designation": "2012 VM76",
    "nasa_jpl_url": "http://ssd.jpl.nasa.gov/sbdb.cgi?sstr=3617707",
    "absolute_magnitude_h": 22.5,
    "estimated_diameter": {
        "kilometers": {
            "estimated_diameter_min": 0.0840533402,
            "estimated_diameter_max": 0.1879489824
        },
        "meters": {
            "estimated_diameter_min": 84.0533402073,
            "estimated_diameter_max": 187.9489824394
        },
        "miles": {
            "estimated_diameter_min": 0.0522283081,
            "estimated_diameter_max": 0.1167860472
        },
        "feet": {
            "estimated_diameter_min": 275.7655606856,
            "estimated_diameter_max": 616.6305395464
        }
    },
    "is_potentially_hazardous_asteroid": false,
    "close_approach_data": [
        {
            "close_approach_date": "2012-10-24",
            "close_approach_date_full": "2012-Oct-24 17:55",
            "epoch_date_close_approach": 1351101300000,
            "relative_velocity": {
                "kilometers_per_second": "11.5876727817",
                "kilometers_per_hour": "41715.6220140073",
                "miles_per_hour": "25920.4652453147"
            },
            "miss_distance": {
                "astronomical": "0.1832385919",
                "lunar": "71.2798122491",
                "kilometers": "27412103.050039253",
                "miles": "17033091.0003695714"
            },
            "orbiting_body": "Earth"
        }
    ],
    "orbital_data": {
        "orbit_id": "11",
        "orbit_determination_date": "2017-04-06 08:48:03",
        "first_observation_date": "2012-11-13",
        "last_observation_date": "2012-12-06",
        "data_arc_in_days": 23,
        "observations_used": 35,
        "orbit_uncertainty": "7",
        "minimum_orbit_intersection": ".177898",
        "jupiter_tisserand_invariant": "3.054",
        "epoch_osculation": "2459000.5",
        "eccentricity": ".5876616930022242",
        "semi_major_axis": "2.688363420857864",
        "inclination": "15.88220618706277",
        "ascending_node_longitude": "49.6355425942566",
        "orbital_period": "1610.01674595982",
        "perihelion_distance": "1.108515221551281",
        "perihelion_argument": "317.2323643345429",
        "aphelion_distance": "4.268211620164448",
        "perihelion_time": "2459423.545690615499",
        "mean_anomaly": "265.4069164163958",
        "mean_motion": ".2236001587582147",
        "equinox": "J2000",
        "orbit_class": {
            "orbit_class_type": "AMO",
            "orbit_class_description": "Near-Earth asteroid orbits similar to that of 1221 Amor",
            "orbit_class_range": "1.017 AU < q (perihelion) < 1.3 AU"
        }
    },
    "is_sentry_object": false
}